{"type": "FeatureCollection", "features": [{"type": "Feature", "properties": {"norad_id": 36828, "name": "BEIDOU-2 IGSO-1 (C06)", "group": "beidou", "lat": -10.305983824718705, "lon": 157.00809252059844, "alt_km": 35930.65602289105, "timestamp": "2025-12-23T20:42:37.340610+00:00", "meta": {"OBJECT_NAME": "BEIDOU-2 IGSO-1 (C06)", "OBJECT_ID": "2010-036A", "EPOCH": "2025-12-20T21:47:26.739168", "MEAN_MOTION": 1.00282395, "ECCENTRICITY": 0.0051798, "INCLINATION": 54.2882, "RA_OF_ASC_NODE": 164.5739, "ARG_OF_PERICENTER": 215.2932, "MEAN_ANOMALY": 144.6604, "EPHEMERIS_TYPE": 0, "CLASSIFICATION_TYPE": "U", "NORAD_CAT_ID": 36828, "ELEMENT_SET_NO": 999, "REV_AT_EPOCH": 5631, "BSTAR": 0, "MEAN_MOTION_DOT": -5.5e-07, "MEAN_MOTION_DDOT": 0}, "tle": {"line1": "1 36828U 10036A   25354.90794837 -.00000055  00000+0  00000+0 0  9992", "line2": "2 36828  54.2882 164.5739 0051798 215.2932 144.6604  1.00282395 56317"}}, "geometry": {"type": "Point", "coordinates": [157.00809252059844, -10.305983824718705]}}, {"type": "Feature", "properties": {"norad_id": 37210, "name": "BEIDOU-2 G4 (C04)", "group": "beidou", "lat": 2.3304087461476253, "lon": -156.67392751044866, "alt_km": 35763.93124215532, "timestamp": "2025-12-23T20:42:37.340636+00:00", "meta": {"OBJECT_NAME": "BEIDOU-2 G4 (C04)", "OBJECT_ID": "2010-057A", "EPOCH": "2025-12-23T05:20:01.162752", "MEAN_MOTION": 1.00271801, "ECCENTRICITY": 0.00103967, "INCLINATION": 3.2089, "RA_OF_ASC_NODE": 69.8991, "ARG_OF_PERICENTER": 193.5513, "MEAN_ANOMALY": 68.6549, "EPHEMERIS_TYPE": 0, "CLASSIFICATION_TYPE": "U", "NORAD_CAT_ID": 37210, "ELEMENT_SET_NO": 999, "REV_AT_EPOCH": 5552, "BSTAR": 0, "MEAN_MOTION_DOT": -9.2e-07, "MEAN_MOTION_DDOT": 0}, "tle": {"line1": "1 37210U 10057A   25357.22223568 -.00000092  00000+0  00000+0 0  9998", "line2": "2 37210   3.2089  69.8991 0010396 193.5513  68.6549  1.00271801 55520"}}, "geometry": {"type": "Point", "coordinates": [-156.67392751044866, 2.3304087461476253]}}, {"type": "Feature", "properties": {"norad_id": 37256, "name": "BEIDOU-2 IGSO-2 (C07)", "group": "beidou", "lat": -38.7290778453903, "lon": 140.44373314506487, "alt_km": 35596.93990390833, "timestamp": "2025-12-23T20:42:37.340651+00:00", "meta": {"OBJECT_NAME": "BEIDOU-2 IGSO-2 (C07)", "OBJECT_ID": "2010-068A", "EPOCH": "2025-12-22T18:34:33.319200", "MEAN_MOTION": 1.00283389, "ECCENTRICITY": 0.00485799, "INCLINATION": 47.8675, "RA_OF_ASC_NODE": 274.0264, "ARG_OF_PERICENTER": 216.371, "MEAN_ANOMALY": 347.8143, "EPHEMERIS_TYPE": 0, "CLASSIFICATION_TYPE": "U", "NORAD_CAT_ID": 37256, "ELEMENT_SET_NO": 999, "REV_AT_EPOCH": 5502, "BSTAR": 0, "MEAN_MOTION_DOT": -1.86e-06, "MEAN_MOTION_DDOT": 0}, "tle": {"line1": "1 37256U 10068A   25356.77399675 -.00000186  00000+0  00000+0 0  9996", "line2": "2 37256  47.8675 274.0264 0048579 216.3710 347.8143  1.00283389 55026"}}, "geometry": {"type": "Point", "coordinates": [140.44373314506487, -38.7290778453903]}}, {"type": "Feature", "properties": {"norad_id": 37384, "name": "BEIDOU-2 IGSO-3 (C08)", "group": "beidou", "lat": 57.08996150185284, "lon": 167.13136454405677, "alt_km": 35753.59181328995, "timestamp": "2025-12-23T20:42:37.340666+00:00", "meta": {"OBJECT_NAME": "BEIDOU-2 IGSO-3 (C08)", "OBJECT_ID": "2011-013A", "EPOCH": "2025-12-22T13:40:14.018880", "MEAN_MOTION": 1.00268611, "ECCENTRICITY": 0.00353737, "INCLINATION": 62.1558, "RA_OF_ASC_NODE": 41.8231, "ARG_OF_PERICENTER": 187.5329, "MEAN_ANOMALY": 174.3937, "EPHEMERIS_TYPE": 0, "CLASSIFICATION_TYPE": "U", "NORAD_CAT_ID": 37384, "ELEMENT_SET_NO": 999, "REV_AT_EPOCH": 5389, "BSTAR": 0, "MEAN_MOTION_DOT": -1.6e-06, "MEAN_MOTION_DDOT": 0}, "tle": {"line1": "1 37384U 11013A   25356.56960670 -.00000160  00000+0  00000+0 0  9997", "line2": "2 37384  62.1558  41.8231 0035373 187.5329 174.3937  1.00268611 53893"}}, "geometry": {"type": "Point", "coordinates": [167.13136454405677, 57.08996150185284]}}, {"type": "Feature", "properties": {"norad_id": 37763, "name": "BEIDOU-2 IGSO-4 (C09)", "group": "beidou", "lat": -22.12321017938669, "lon": 150.40129930759252, "alt_km": 35912.719154916624, "timestamp": "2025-12-23T20:42:37.340678+00:00", "meta": {"OBJECT_NAME": "BEIDOU-2 IGSO-4 (C09)", "OBJECT_ID": "2011-038A", "EPOCH": "2025-12-21T10:06:26.864064", "MEAN_MOTION": 1.00280083, "ECCENTRICITY": 0.01491557, "INCLINATION": 54.5854, "RA_OF_ASC_NODE": 167.2693, "ARG_OF_PERICENTER": 230.0944, "MEAN_ANOMALY": 299.1265, "EPHEMERIS_TYPE": 0, "CLASSIFICATION_TYPE": "U", "NORAD_CAT_ID": 37763, "ELEMENT_SET_NO": 999, "REV_AT_EPOCH": 5286, "BSTAR": 0, "MEAN_MOTION_DOT": 5.9e-07, "MEAN_MOTION_DDOT": 0}, "tle": {"line1": "1 37763U 11038A   25355.42114426  .00000059  00000+0  00000+0 0  9995", "line2": "2 37763  54.5854 167.2693 0149155 230.0944 299.1265  1.00280083 52867"}}, "geometry": {"type": "Point", "coordinates": [150.40129930759252, -22.12321017938669]}}, {"type": "Feature", "properties": {"norad_id": 37948, "name": "BEIDOU-2 IGSO-5 (C10)", "group": "beidou", "lat": -30.573054581063786, "lon": 125.80991158404404, "alt_km": 35323.0731266327, "timestamp": "2025-12-23T20:42:37.340690+00:00", "meta": {"OBJECT_NAME": "BEIDOU-2 IGSO-5 (C10)", "OBJECT_ID": "2011-073A", "EPOCH": "2025-12-22T17:56:38.660352", "MEAN_MOTION": 1.00289046, "ECCENTRICITY": 0.01097824, "INCLINATION": 48.0017, "RA_OF_ASC_NODE": 273.7363, "ARG_OF_PERICENTER": 222.2409, "MEAN_ANOMALY": 318.2771, "EPHEMERIS_TYPE": 0, "CLASSIFICATION_TYPE": "U", "NORAD_CAT_ID": 37948, "ELEMENT_SET_NO": 999, "REV_AT_EPOCH": 5136, "BSTAR": 0, "MEAN_MOTION_DOT": -1.4e-06, "MEAN_MOTION_DDOT": 0}, "tle": {"line1": "1 37948U 11073A   25356.74766968 -.00000140  00000+0  00000+0 0  9991", "line2": "2 37948  48.0017 273.7363 0109782 222.2409 318.2771  1.00289046 51366"}}, "geometry": {"type": "Point", "coordinates": [125.80991158404404, -30.573054581063786]}}, {"type": "Feature", "properties": {"norad_id": 38091, "name": "BEIDOU-2 G5 (C05)", "group": "beidou", "lat": 1.65595672627974, "lon": 102.05118984041677, "alt_km": 35838.64250240506, "timestamp": "2025-12-23T20:42:37.340703+00:00", "meta": {"OBJECT_NAME": "BEIDOU-2 G5 (C05)", "OBJECT_ID": "2012-008A", "EPOCH": "2025-12-23T03:08:21.323904", "MEAN_MOTION": 1.00269239, "ECCENTRICITY": 0.0013154, "INCLINATION": 3.1332, "RA_OF_ASC_NODE": 70.6743, "ARG_OF_PERICENTER": 232.0278, "MEAN_ANOMALY": 255.0578, "EPHEMERIS_TYPE": 0, "CLASSIFICATION_TYPE": "U", "NORAD_CAT_ID": 38091, "ELEMENT_SET_NO": 999, "REV_AT_EPOCH": 5060, "BSTAR": 0, "MEAN_MOTION_DOT": 7.7e-07, "MEAN_MOTION_DDOT": 0}, "tle": {"line1": "1 38091U 12008A   25357.13080236  .00000077  00000+0  00000+0 0  9999", "line2": "2 38091   3.1332  70.6743 0013154 232.0278 255.0578  1.00269239 50605"}}, "geometry": {"type": "Point", "coordinates": [102.05118984041677, 1.65595672627974]}}, {"type": "Feature", "properties": {"norad_id": 38250, "name": "BEIDOU-2 M3 (C11)", "group": "beidou", "lat": 5.351977541763895, "lon": 127.13048586896961, "alt_km": 21541.511909317196, "timestamp": "2025-12-23T20:42:37.340715+00:00", "meta": {"OBJECT_NAME": "BEIDOU-2 M3 (C11)", "OBJECT_ID": "2012-018A", "EPOCH": "2025-12-23T01:35:36.846816", "MEAN_MOTION": 1.86230199, "ECCENTRICITY": 0.00241034, "INCLINATION": 55.9114, "RA_OF_ASC_NODE": 310.8107, "ARG_OF_PERICENTER": 275.3309, "MEAN_ANOMALY": 84.3935, "EPHEMERIS_TYPE": 0, "CLASSIFICATION_TYPE": "U", "NORAD_CAT_ID": 38250, "ELEMENT_SET_NO": 999, "REV_AT_EPOCH": 9266, "BSTAR": 0, "MEAN_MOTION_DOT": -5.5e-07, "MEAN_MOTION_DDOT": 0}, "tle": {"line1": "1 38250U 12018A   25357.06639869 -.00000055  00000+0  00000+0 0  9998", "line2": "2 38250  55.9114 310.8107 0024103 275.3309  84.3935  1.86230199 92668"}}, "geometry": {"type": "Point", "coordinates": [127.13048586896961, 5.351977541763895]}}, {"type": "Feature", "properties": {"norad_id": 38251, "name": "BEIDOU-2 M4 (C12)", "group": "beidou", "lat": -31.59658316372953, "lon": 154.68088459344838, "alt_km": 21510.84567405268, "timestamp": "2025-12-23T20:42:37.340726+00:00", "meta": {"OBJECT_NAME": "BEIDOU-2 M4 (C12)", "OBJECT_ID": "2012-018B", "EPOCH": "2025-12-21T22:11:20.549760", "MEAN_MOTION": 1.86229896, "ECCENTRICITY": 0.00152556, "INCLINATION": 55.8135, "RA_OF_ASC_NODE": 310.0771, "ARG_OF_PERICENTER": 279.1681, "MEAN_ANOMALY": 80.6551, "EPHEMERIS_TYPE": 0, "CLASSIFICATION_TYPE": "U", "NORAD_CAT_ID": 38251, "ELEMENT_SET_NO": 999, "REV_AT_EPOCH": 9264, "BSTAR": 0, "MEAN_MOTION_DOT": -6e-07, "MEAN_MOTION_DDOT": 0}, "tle": {"line1": "1 38251U 12018B   25355.92454340 -.00000060  00000+0  00000+0 0  9997", "line2": "2 38251  55.8135 310.0771 0015255 279.1681  80.6551  1.86229896 92646"}}, "geometry": {"type": "Point", "coordinates": [154.68088459344838, -31.59658316372953]}}, {"type": "Feature", "properties": {"norad_id": 38775, "name": "BEIDOU-2 M6 (C14)", "group": "beidou", "lat": 42.050693476447954, "lon": 105.52770666833467, "alt_km": 21512.197067317204, "timestamp": "2025-12-23T20:42:37.340738+00:00", "meta": {"OBJECT_NAME": "BEIDOU-2 M6 (C14)", "OBJECT_ID": "2012-050B", "EPOCH": "2025-12-23T05:54:39.234816", "MEAN_MOTION": 1.86230862, "ECCENTRICITY": 0.00114449, "INCLINATION": 56.3871, "RA_OF_ASC_NODE": 68.7189, "ARG_OF_PERICENTER": 343.1863, "MEAN_ANOMALY": 16.829, "EPHEMERIS_TYPE": 0, "CLASSIFICATION_TYPE": "U", "NORAD_CAT_ID": 38775, "ELEMENT_SET_NO": 999, "REV_AT_EPOCH": 9003, "BSTAR": 0, "MEAN_MOTION_DOT": -2.5e-07, "MEAN_MOTION_DDOT": 0}, "tle": {"line1": "1 38775U 12050B   25357.24628744 -.00000025  00000+0  00000+0 0  9993", "line2": "2 38775  56.3871  68.7189 0011444 343.1863  16.8290  1.86230862 90037"}}, "geometry": {"type": "Point", "coordinates": [105.52770666833467, 42.050693476447954]}}]}